STARLINK-6136           
1 56540U 23065AP  26068.41290024  .00000023  00000+0  16772-4 0  9991
2 56540  43.0027 224.8178 0001393 269.9484  90.1199 15.02534000156436
LEMUR-2-ALISIA          
1 62706U 25009DB  26068.73770453  .00009177  00000+0  72005-3 0  9995
2 62706  97.7037 151.6973 0006582 159.9869 200.1615 15.01147598 85230
